[{"OBJECT_NAME":"ALOS (DAICHI)","OBJECT_ID":"2006-002A","EPOCH":"2026-03-27T06:29:45.169152","MEAN_MOTION":14.69861849,"ECCENTRICITY":8.25e-5,"INCLINATION":98.1246,"RA_OF_ASC_NODE":42.1417,"ARG_OF_PERICENTER":104.7799,"MEAN_ANOMALY":255.3498,"EPHEMERIS_TYPE":0,"CLASSIFICATION_TYPE":"U","NORAD_CAT_ID":28931,"ELEMENT_SET_NO":999,"REV_AT_EPOCH":7606,"BSTAR":0.00023091086,"MEAN_MOTION_DOT":1.331e-5,"MEAN_MOTION_DDOT":0},{"OBJECT_NAME":"H-2A R/B","OBJECT_ID":"2006-002B","EPOCH":"2026-03-27T06:59:26.709504","MEAN_MOTION":15.16798084,"ECCENTRICITY":0.00523787,"INCLINATION":98.2442,"RA_OF_ASC_NODE":234.8373,"ARG_OF_PERICENTER":180.8394,"MEAN_ANOMALY":179.2758,"EPHEMERIS_TYPE":0,"CLASSIFICATION_TYPE":"U","NORAD_CAT_ID":28932,"ELEMENT_SET_NO":999,"REV_AT_EPOCH":9710,"BSTAR":0.00057356292,"MEAN_MOTION_DOT":0.00011601,"MEAN_MOTION_DDOT":0},{"OBJECT_NAME":"RESURS-DK 1","OBJECT_ID":"2006-021A","EPOCH":"2026-03-27T06:08:37.018464","MEAN_MOTION":15.12854269,"ECCENTRICITY":0.00010449,"INCLINATION":69.9336,"RA_OF_ASC_NODE":191.5827,"ARG_OF_PERICENTER":59.7056,"MEAN_ANOMALY":300.4213,"EPHEMERIS_TYPE":0,"CLASSIFICATION_TYPE":"U","NORAD_CAT_ID":29228,"ELEMENT_SET_NO":999,"REV_AT_EPOCH":9018,"BSTAR":0.00013228875,"MEAN_MOTION_DOT":2.224e-5,"MEAN_MOTION_DDOT":0},{"OBJECT_NAME":"CZ-4B R/B","OBJECT_ID":"2006-046C","EPOCH":"2026-03-27T02:08:21.608736","MEAN_MOTION":15.17074871,"ECCENTRICITY":0.00325579,"INCLINATION":97.5562,"RA_OF_ASC_NODE":130.9503,"ARG_OF_PERICENTER":204.6895,"MEAN_ANOMALY":155.2781,"EPHEMERIS_TYPE":0,"CLASSIFICATION_TYPE":"U","NORAD_CAT_ID":29507,"ELEMENT_SET_NO":999,"REV_AT_EPOCH":6268,"BSTAR":0.00023330956,"MEAN_MOTION_DOT":4.612e-5,"MEAN_MOTION_DDOT":0},{"OBJECT_NAME":"CZ-2C R/B","OBJECT_ID":"2007-010B","EPOCH":"2026-03-27T06:25:55.435008","MEAN_MOTION":14.20252379,"ECCENTRICITY":0.00579882,"INCLINATION":98.3997,"RA_OF_ASC_NODE":198.6673,"ARG_OF_PERICENTER":242.504,"MEAN_ANOMALY":117.0236,"EPHEMERIS_TYPE":0,"CLASSIFICATION_TYPE":"U","NORAD_CAT_ID":31114,"ELEMENT_SET_NO":999,"REV_AT_EPOCH":98221,"BSTAR":8.1539395e-5,"MEAN_MOTION_DOT":1.36e-6,"MEAN_MOTION_DDOT":0},{"OBJECT_NAME":"COSMO-SKYMED 1","OBJECT_ID":"2007-023A","EPOCH":"2026-03-27T05:57:48.074976","MEAN_MOTION":14.96658284,"ECCENTRICITY":9.577e-5,"INCLINATION":97.8878,"RA_OF_ASC_NODE":277.4237,"ARG_OF_PERICENTER":94.6219,"MEAN_ANOMALY":265.5111,"EPHEMERIS_TYPE":0,"CLASSIFICATION_TYPE":"U","NORAD_CAT_ID":31598,"ELEMENT_SET_NO":999,"REV_AT_EPOCH":1753,"BSTAR":0.00026130555,"MEAN_MOTION_DOT":2.921e-5,"MEAN_MOTION_DDOT":0},{"OBJECT_NAME":"COSMOS 2428","OBJECT_ID":"2007-029A","EPOCH":"2026-03-27T07:18:08.222976","MEAN_MOTION":14.12948218,"ECCENTRICITY":0.00096788,"INCLINATION":70.9436,"RA_OF_ASC_NODE":166.3744,"ARG_OF_PERICENTER":258.9748,"MEAN_ANOMALY":101.0285,"EPHEMERIS_TYPE":0,"CLASSIFICATION_TYPE":"U","NORAD_CAT_ID":31792,"ELEMENT_SET_NO":999,"REV_AT_EPOCH":96658,"BSTAR":-3.30357e-7,"MEAN_MOTION_DOT":-4.9e-7,"MEAN_MOTION_DDOT":0},{"OBJECT_NAME":"SL-16 R/B","OBJECT_ID":"2007-029B","EPOCH":"2026-03-27T07:28:58.231776","MEAN_MOTION":14.14843175,"ECCENTRICITY":0.00026432,"INCLINATION":70.975,"RA_OF_ASC_NODE":135.3435,"ARG_OF_PERICENTER":277.6815,"MEAN_ANOMALY":155.0414,"EPHEMERIS_TYPE":0,"CLASSIFICATION_TYPE":"U","NORAD_CAT_ID":31793,"ELEMENT_SET_NO":999,"REV_AT_EPOCH":96786,"BSTAR":6.719963e-5,"MEAN_MOTION_DOT":8.2e-7,"MEAN_MOTION_DDOT":0},{"OBJECT_NAME":"KORONAS-FOTON","OBJECT_ID":"2009-003A","EPOCH":"2026-03-27T04:52:30.273024","MEAN_MOTION":15.43774182,"ECCENTRICITY":0.00117902,"INCLINATION":82.4277,"RA_OF_ASC_NODE":257.6609,"ARG_OF_PERICENTER":93.0729,"MEAN_ANOMALY":267.1867,"EPHEMERIS_TYPE":0,"CLASSIFICATION_TYPE":"U","NORAD_CAT_ID":33504,"ELEMENT_SET_NO":999,"REV_AT_EPOCH":94844,"BSTAR":0.00027636387,"MEAN_MOTION_DOT":0.00012569,"MEAN_MOTION_DDOT":0},{"OBJECT_NAME":"CZ-2C R/B","OBJECT_ID":"2011-030B","EPOCH":"2026-03-27T07:54:05.912640","MEAN_MOTION":14.81282384,"ECCENTRICITY":0.00511599,"INCLINATION":97.8573,"RA_OF_ASC_NODE":43.2434,"ARG_OF_PERICENTER":293.7709,"MEAN_ANOMALY":227.5557,"EPHEMERIS_TYPE":0,"CLASSIFICATION_TYPE":"U","NORAD_CAT_ID":37731,"ELEMENT_SET_NO":999,"REV_AT_EPOCH":79270,"BSTAR":0.00018765357,"MEAN_MOTION_DOT":1.441e-5,"MEAN_MOTION_DDOT":0},{"OBJECT_NAME":"H-2A R/B","OBJECT_ID":"2012-025E","EPOCH":"2026-03-27T06:16:43.108320","MEAN_MOTION":14.95288209,"ECCENTRICITY":0.00426957,"INCLINATION":98.4761,"RA_OF_ASC_NODE":54.7193,"ARG_OF_PERICENTER":254.7847,"MEAN_ANOMALY":104.8649,"EPHEMERIS_TYPE":0,"CLASSIFICATION_TYPE":"U","NORAD_CAT_ID":38341,"ELEMENT_SET_NO":999,"REV_AT_EPOCH":75084,"BSTAR":0.00031965422,"MEAN_MOTION_DOT":3.515e-5,"MEAN_MOTION_DDOT":0},{"OBJECT_NAME":"SHIJIAN-16 (SJ-16)","OBJECT_ID":"2013-057A","EPOCH":"2026-03-27T07:50:40.768800","MEAN_MOTION":14.92414036,"ECCENTRICITY":0.00152655,"INCLINATION":74.9722,"RA_OF_ASC_NODE":151.7011,"ARG_OF_PERICENTER":66.8279,"MEAN_ANOMALY":293.4515,"EPHEMERIS_TYPE":0,"CLASSIFICATION_TYPE":"U","NORAD_CAT_ID":39358,"ELEMENT_SET_NO":999,"REV_AT_EPOCH":67413,"BSTAR":0.00013336503,"MEAN_MOTION_DOT":1.34e-5,"MEAN_MOTION_DDOT":0},{"OBJECT_NAME":"SL-4 R/B","OBJECT_ID":"2014-021B","EPOCH":"2026-03-25T19:01:41.820096","MEAN_MOTION":15.39717175,"ECCENTRICITY":0.00959711,"INCLINATION":51.6053,"RA_OF_ASC_NODE":258.6863,"ARG_OF_PERICENTER":161.6166,"MEAN_ANOMALY":198.8326,"EPHEMERIS_TYPE":0,"CLASSIFICATION_TYPE":"U","NORAD_CAT_ID":39679,"ELEMENT_SET_NO":999,"REV_AT_EPOCH":65875,"BSTAR":0.00037834437,"MEAN_MOTION_DOT":0.00017461,"MEAN_MOTION_DDOT":0},{"OBJECT_NAME":"ALOS-2","OBJECT_ID":"2014-029A","EPOCH":"2026-03-27T07:16:39.122112","MEAN_MOTION":14.79440981,"ECCENTRICITY":0.00019194,"INCLINATION":97.9186,"RA_OF_ASC_NODE":184.644,"ARG_OF_PERICENTER":104.8586,"MEAN_ANOMALY":255.2838,"EPHEMERIS_TYPE":0,"CLASSIFICATION_TYPE":"U","NORAD_CAT_ID":39766,"ELEMENT_SET_NO":999,"REV_AT_EPOCH":63947,"BSTAR":0.00026087039,"MEAN_MOTION_DOT":1.896e-5,"MEAN_MOTION_DDOT":0},{"OBJECT_NAME":"YAOGAN-29","OBJECT_ID":"2015-069A","EPOCH":"2026-03-27T08:05:27.384000","MEAN_MOTION":14.83013012,"ECCENTRICITY":6.491e-5,"INCLINATION":98.0124,"RA_OF_ASC_NODE":114.8125,"ARG_OF_PERICENTER":6.8657,"MEAN_ANOMALY":353.2565,"EPHEMERIS_TYPE":0,"CLASSIFICATION_TYPE":"U","NORAD_CAT_ID":41038,"ELEMENT_SET_NO":999,"REV_AT_EPOCH":55849,"BSTAR":1.4879671e-5,"MEAN_MOTION_DOT":6.7e-7,"MEAN_MOTION_DDOT":0},{"OBJECT_NAME":"ASTRO-H (HITOMI)","OBJECT_ID":"2016-012A","EPOCH":"2026-03-27T03:36:57.326400","MEAN_MOTION":15.10110806,"ECCENTRICITY":0.00096014,"INCLINATION":30.9987,"RA_OF_ASC_NODE":243.8581,"ARG_OF_PERICENTER":147.3455,"MEAN_ANOMALY":212.7778,"EPHEMERIS_TYPE":0,"CLASSIFICATION_TYPE":"U","NORAD_CAT_ID":41337,"ELEMENT_SET_NO":999,"REV_AT_EPOCH":55487,"BSTAR":0.00017284547,"MEAN_MOTION_DOT":2.984e-5,"MEAN_MOTION_DDOT":0}]
