ALOS (DAICHI),1 28931U 06002A   26086.27066168  .00001331  00000+0  23091-3 0  9994,2 28931  98.1246  42.1417 0000825 104.7799 255.3498 14.69861849 76067,-80.42643385405107,85.09059768268601,690214.7092356617
H-2A R/B,1 28932U 06002B   26086.29128136  .00011601  00000+0  57356-3 0  9993,2 28932  98.2442 234.8373 0052378 180.8394 179.2758 15.16798084 97108,-26.120286210457294,36.39828497812576,492891.6780599099
RESURS-DK 1,1 29228U 06021A   26086.25598401  .00002224  00000+0  13229-3 0  9997,2 29228  69.9336 191.5827 0001044  59.7056 300.4213 15.12854269 90189,32.83274471402203,-170.20458677482065,530559.4743862405
CZ-4B R/B,1 29507U 06046C   26086.08913899  .00004612  00000+0  23331-3 0  9995,2 29507  97.5562 130.9503 0032557 204.6895 155.2781 15.17074871 62688,-49.10670101675076,-72.01882151044798,513620.1489870347
CZ-2C R/B,1 31114U 07010B   26086.26800272  .00000136  00000+0  81539-4 0  9996,2 31114  98.3997 198.6673 0057988 242.5040 117.0236 14.20252379982218,-61.53096176156436,-11.446119926872,806367.5016030042
COSMO-SKYMED 1,1 31598U 07023A   26086.24847309  .00002921  00000+0  26131-3 0  9996,2 31598  97.8878 277.4237 0000957  94.6219 265.5111 14.96658284 17539,58.542519509427684,-109.95544060869538,586584.3641214123
COSMOS 2428,1 31792U 07029A   26086.30426184 -.00000049  00000+0 -33036-6 0  9995,2 31792  70.9436 166.3744 0009678 258.9748 101.0285 14.12948218966588,48.41028499396917,174.04131598413355,862606.0859738693
SL-16 R/B,1 31793U 07029B   26086.31178509  .00000082  00000+0  67200-4 0  9995,2 31793  70.9750 135.3435 0002643 277.6815 155.0414 14.14843175967862,70.9737679455585,-155.67777394834758,856439.3031379087
KORONAS-FOTON,1 33504U 09003A   26086.20312816  .00012569  00000+0  27636-3 0  9991,2 33504  82.4277 257.6609 0011790  93.0729 267.1867 15.43774182948448,-1.7821148794126271,-117.55528443398771,438815.6004545099
CZ-2C R/B,1 37731U 11030B   26086.32923510  .00001441  00000+0  18765-3 0  9992,2 37731  97.8573  43.2434 0051159 293.7709 227.5557 14.81282384792709,45.024016535869336,-143.3106023553215,665465.378688758
H-2A R/B,1 38341U 12025E   26086.26161005  .00003515  00000+0  31965-3 0  9992,2 38341  98.4761  54.7193 0042695 254.7847 104.8649 14.95288209750842,-12.729786944850739,42.28104052892334,588655.3370608292
SHIJIAN-16 (SJ-16),1 39358U 13057A   26086.32686075  .00001340  00000+0  13337-3 0  9990,2 39358  74.9722 151.7011 0015265  66.8279 293.4515 14.92414036674138,-5.5910005802266864,135.18113220754404,590731.8784990232
SL-4 R/B,1 39679U 14021B   26084.79284514  .00017461  00000+0  37834-3 0  9998,2 39679  51.6053 258.6863 0095971 161.6166 198.8326 15.39717175658756,-50.65550673035348,129.5779558705536,465691.0798119068
ALOS-2,1 39766U 14029A   26086.30323058  .00001896  00000+0  26087-3 0  9992,2 39766  97.9186 184.6440 0001919 104.8586 255.2838 14.79440981639471,68.01173143178427,10.256247325513405,641513.4884951042
YAOGAN-29,1 41038U 15069A   26086.33712250  .00000067  00000+0  14880-4 0  9999,2 41038  98.0124 114.8125 0000649   6.8657 353.2565 14.83013012558498,-66.193093747758,118.85992378671057,644817.698607507
ASTRO-H (HITOMI),1 41337U 16012A   26086.15066350  .00002984  00000+0  17285-3 0  9994,2 41337  30.9987 243.8581 0009601 147.3455 212.7778 15.10110806554878,-28.956384653700525,113.11573457101274,543156.8280726823
